FLOCK 4G-23             
1 62647U 25009AQ  26115.80714737  .00038454  00000+0  13752-2 0  9996
2 62647  97.3943 197.6765 0002806 136.5197 223.6265 15.28694594 70917
FLOCK 4G-34             
1 62650U 25009AT  26115.76084936  .00010949  00000+0  40083-3 0  9993
2 62650  97.3966 197.6866 0003415 121.9003 238.2569 15.28202208 70904
FLOCK 4G-21             
1 62651U 25009AU  26115.77308459  .00011788  00000+0  41423-3 0  9995
2 62651  97.3994 198.4553 0003244 124.5603 235.5944 15.29527975 70946
FLOCK 4G-31             
1 62652U 25009AV  26115.78083458  .00011022  00000+0  40547-3 0  9993
2 62652  97.3971 197.6954 0003028 125.0877 235.0647 15.28039568 70903
FLOCK 4G-4              
1 62659U 25009BC  26115.79332600  .00010029  00000+0  37185-3 0  9997
2 62659  97.3954 197.4473 0003834 132.3387 227.8177 15.27803809128500
FLOCK 4G-6              
1 62660U 25009BD  26115.79434484  .00010193  00000+0  36930-3 0  9991
2 62660  97.3945 197.5327 0004591 142.8686 217.2873 15.28559673128492
FLOCK 4G-2              
1 62661U 25009BE  26115.73830367  .00010669  00000+0  38346-3 0  9997
2 62661  97.4009 198.0115 0005423 139.6457 220.5186 15.28807005128513
FLOCK 4G-5              
1 62663U 25009BG  26115.76771685  .00010094  00000+0  35464-3 0  9999
2 62663  97.4024 198.3418 0004821 125.0010 235.1683 15.29570052 70921
FLOCK 4G-1              
1 62666U 25009BK  26115.77819962  .00010899  00000+0  39473-3 0  9991
2 62666  97.4024 198.0388 0005668 138.1839 221.9835 15.28548669 70909
FLOCK 4G-14             
1 62667U 25009BL  26115.78722640  .00010057  00000+0  36860-3 0  9992
2 62667  97.4026 197.8939 0005920 133.0523 227.1213 15.28176200 70890
FLOCK 4G-10             
1 62670U 25009BP  26115.86733059  .00011706  00000+0  42797-3 0  9999
2 62670  97.3928 197.3689 0005662 147.1717 212.9876 15.28220237128548
FLOCK 4G-36             
1 62675U 25009BU  26115.79817374  .00011130  00000+0  40583-3 0  9991
2 62675  97.4016 197.8251 0006074 137.3786 222.7926 15.28318127 70892
FLOCK 4G-15             
1 62678U 25009BX  26115.93877148  .00011368  00000+0  41425-3 0  9994
2 62678  97.4021 198.0990 0006251 134.3042 225.8711 15.28332703128563
FLOCK 4G-30             
1 62679U 25009BY  26115.79846562  .00038532  00000+0  13847-2 0  9993
2 62679  97.3927 197.3222 0005547 150.1141 210.0417 15.28526712128532
FLOCK 4G-18             
1 62680U 25009BZ  26115.93654261  .00012098  00000+0  44092-3 0  9990
2 62680  97.4015 197.9255 0006490 144.7419 215.4251 15.28308673128551
FLOCK 4G-17             
1 62681U 25009CA  26115.84283504  .00013315  00000+0  48267-3 0  9990
2 62681  97.3928 197.5522 0005835 147.8569 212.3027 15.28467736128552
